FLOCK 4BE-12            
1 60560U 24149CW  26063.16405565  .00145703  00000+0  30038-2 0  9991
2 60560  97.3773 147.0408 0005687 280.1802  79.8805 15.45332091 86213
FLOCK 4BE-3             
1 60561U 24149CX  26063.19969554  .00027374  00000+0  73385-3 0  9994
2 60561  97.3754 146.3600 0003164 306.0858  54.0093 15.37951480 86186
FLOCK 4BE-19            
1 60563U 24149CZ  26063.08409270  .00030064  00000+0  75240-3 0  9990
2 60563  97.3793 147.3276 0003174 311.7964  48.3010 15.40045742 86222
PELICAN-2               
1 62631U 25009Y   26063.13908969  .00075475  00000+0  18581-2 0  9998
2 62631  97.4022 153.3775 0005965 222.5832 137.4952 15.40304205 63389
PELICAN-3               
1 65315U 25188A   26062.82963603  .00004447  00000+0  11107-3 0  9998
2 65315  97.2232 140.4430 0003233 204.9810 155.1281 15.40671816 29090
PELICAN-4               
1 65316U 25188B   26062.65041579  .00012803  00000+0  31636-3 0  9993
2 65316  97.2308 140.3551 0006007 111.7293 248.4594 15.40597242 29060
