[{"OBJECT_NAME":"FLOCK 4BE-12","OBJECT_ID":"2024-149CW","EPOCH":"2026-03-04T03:56:14.408160","MEAN_MOTION":15.45332091,"ECCENTRICITY":0.0005687,"INCLINATION":97.3773,"RA_OF_ASC_NODE":147.0408,"ARG_OF_PERICENTER":280.1802,"MEAN_ANOMALY":79.8805,"EPHEMERIS_TYPE":0,"CLASSIFICATION_TYPE":"U","NORAD_CAT_ID":60560,"ELEMENT_SET_NO":999,"REV_AT_EPOCH":8621,"BSTAR":0.0030038,"MEAN_MOTION_DOT":0.00145703,"MEAN_MOTION_DDOT":0},{"OBJECT_NAME":"FLOCK 4BE-3","OBJECT_ID":"2024-149CX","EPOCH":"2026-03-04T04:47:33.694656","MEAN_MOTION":15.3795148,"ECCENTRICITY":0.0003164,"INCLINATION":97.3754,"RA_OF_ASC_NODE":146.36,"ARG_OF_PERICENTER":306.0858,"MEAN_ANOMALY":54.0093,"EPHEMERIS_TYPE":0,"CLASSIFICATION_TYPE":"U","NORAD_CAT_ID":60561,"ELEMENT_SET_NO":999,"REV_AT_EPOCH":8618,"BSTAR":0.00073385,"MEAN_MOTION_DOT":0.00027374,"MEAN_MOTION_DDOT":0},{"OBJECT_NAME":"FLOCK 4BE-19","OBJECT_ID":"2024-149CZ","EPOCH":"2026-03-04T02:01:05.609280","MEAN_MOTION":15.40045742,"ECCENTRICITY":0.0003174,"INCLINATION":97.3793,"RA_OF_ASC_NODE":147.3276,"ARG_OF_PERICENTER":311.7964,"MEAN_ANOMALY":48.301,"EPHEMERIS_TYPE":0,"CLASSIFICATION_TYPE":"U","NORAD_CAT_ID":60563,"ELEMENT_SET_NO":999,"REV_AT_EPOCH":8622,"BSTAR":0.0007524,"MEAN_MOTION_DOT":0.00030064,"MEAN_MOTION_DDOT":0},{"OBJECT_NAME":"PELICAN-2","OBJECT_ID":"2025-009Y","EPOCH":"2026-03-04T03:20:17.349216","MEAN_MOTION":15.40304205,"ECCENTRICITY":0.0005965,"INCLINATION":97.4022,"RA_OF_ASC_NODE":153.3775,"ARG_OF_PERICENTER":222.5832,"MEAN_ANOMALY":137.4952,"EPHEMERIS_TYPE":0,"CLASSIFICATION_TYPE":"U","NORAD_CAT_ID":62631,"ELEMENT_SET_NO":999,"REV_AT_EPOCH":6338,"BSTAR":0.0018581,"MEAN_MOTION_DOT":0.00075475,"MEAN_MOTION_DDOT":0},{"OBJECT_NAME":"PELICAN-3","OBJECT_ID":"2025-188A","EPOCH":"2026-03-03T19:54:40.552992","MEAN_MOTION":15.40671816,"ECCENTRICITY":0.00032338,"INCLINATION":97.2232,"RA_OF_ASC_NODE":140.443,"ARG_OF_PERICENTER":204.981,"MEAN_ANOMALY":155.1281,"EPHEMERIS_TYPE":0,"CLASSIFICATION_TYPE":"U","NORAD_CAT_ID":65315,"ELEMENT_SET_NO":999,"REV_AT_EPOCH":2909,"BSTAR":0.00011106798,"MEAN_MOTION_DOT":4.447e-5,"MEAN_MOTION_DDOT":0},{"OBJECT_NAME":"PELICAN-4","OBJECT_ID":"2025-188B","EPOCH":"2026-03-03T15:36:35.924256","MEAN_MOTION":15.40597242,"ECCENTRICITY":0.00060079,"INCLINATION":97.2308,"RA_OF_ASC_NODE":140.3551,"ARG_OF_PERICENTER":111.7293,"MEAN_ANOMALY":248.4594,"EPHEMERIS_TYPE":0,"CLASSIFICATION_TYPE":"U","NORAD_CAT_ID":65316,"ELEMENT_SET_NO":999,"REV_AT_EPOCH":2906,"BSTAR":0.00031636174,"MEAN_MOTION_DOT":0.00012803,"MEAN_MOTION_DDOT":0}]
